[
    {
        "Altitude(m)": 560905.5700044306,
        "Argument of Periapsis(deg)": 0.0,
        "Eccentricity": 0.0,
        "Inclination(deg)": 53.0,
        "Latitude(deg)": -25.776371364424552,
        "Longitude(deg)": -83.75194049212237,
        "Mean Anomaly(deg)": -147.2727,
        "RAAN(deg)": 175.0,
        "Satellite Name": "Starlink Shell 1 783",
        "Satellite Number": 783,
        "Semi-Major Axis(m)": 6931778.249405717,
        "Time(s)": 0
    },
    {
        "Altitude(m)": 561076.8492834382,
        "Argument of Periapsis(deg)": 0.00034857847951123687,
        "Eccentricity": 0.0,
        "Inclination(deg)": 53.0,
        "Latitude(deg)": -26.243811822353628,
        "Longitude(deg)": -83.32823054746277,
        "Mean Anomaly(deg)": -146.6458687964433,
        "RAAN(deg)": 174.99948122992254,
        "Satellite Name": "Starlink Shell 1 783",
        "Satellite Number": 783,
        "Semi-Major Axis(m)": 6931778.249405717,
        "Time(s)": 10
    },
    {
        "Altitude(m)": 561248.8172957399,
        "Argument of Periapsis(deg)": 0.0006971569590224737,
        "Eccentricity": 0.0,
        "Inclination(deg)": 53.0,
        "Latitude(deg)": -26.709691179692257,
        "Longitude(deg)": -82.90080906166567,
        "Mean Anomaly(deg)": -146.0190375928865,
        "RAAN(deg)": 174.99896245984505,
        "Satellite Name": "Starlink Shell 1 783",
        "Satellite Number": 783,
        "Semi-Major Axis(m)": 6931778.249405717,
        "Time(s)": 20
    },
    {
        "Altitude(m)": 561421.4109973168,
        "Argument of Periapsis(deg)": 0.0010457354385337105,
        "Eccentricity": 0.0,
        "Inclination(deg)": 53.0,
        "Latitude(deg)": -27.173965843552963,
        "Longitude(deg)": -82.46958182602644,
        "Mean Anomaly(deg)": -145.39220638932986,
        "RAAN(deg)": 174.99844368976758,
        "Satellite Name": "Starlink Shell 1 783",
        "Satellite Number": 783,
        "Semi-Major Axis(m)": 6931778.249405717,
        "Time(s)": 30
    },
    {
        "Altitude(m)": 561594.566917151,
        "Argument of Periapsis(deg)": 0.0013943139180449475,
        "Eccentricity": 0.0,
        "Inclination(deg)": 53.0,
        "Latitude(deg)": -27.63659128517521,
        "Longitude(deg)": -82.03445283831338,
        "Mean Anomaly(deg)": -144.7653751857731,
        "RAAN(deg)": 174.99792491969012,
        "Satellite Name": "Starlink Shell 1 783",
        "Satellite Number": 783,
        "Semi-Major Axis(m)": 6931778.249405717,
        "Time(s)": 40
    },
    {
        "Altitude(m)": 561768.2211857102,
        "Argument of Periapsis(deg)": 0.0017428923975561844,
        "Eccentricity": 0.0,
        "Inclination(deg)": 53.0,
        "Latitude(deg)": -28.09752201152848,
        "Longitude(deg)": -81.59532530517116,
        "Mean Anomaly(deg)": -144.13854398221642,
        "RAAN(deg)": 174.99740614961263,
        "Satellite Name": "Starlink Shell 1 783",
        "Satellite Number": 783,
        "Semi-Major Axis(m)": 6931778.249405717,
        "Time(s)": 50
    },
    {
        "Altitude(m)": 561942.3095635936,
        "Argument of Periapsis(deg)": 0.002091470877067421,
        "Eccentricity": 0.0,
        "Inclination(deg)": 53.0,
        "Latitude(deg)": -28.55671153643306,
        "Longitude(deg)": -81.15210113408726,
        "Mean Anomaly(deg)": -143.5117127786597,
        "RAAN(deg)": 174.99688737953517,
        "Satellite Name": "Starlink Shell 1 783",
        "Satellite Number": 783,
        "Semi-Major Axis(m)": 6931778.249405717,
        "Time(s)": 60
    },
    {
        "Altitude(m)": 562116.7674703535,
        "Argument of Periapsis(deg)": 0.0024400493565786582,
        "Eccentricity": 0.0,
        "Inclination(deg)": 53.0,
        "Latitude(deg)": -29.014112351209242,
        "Longitude(deg)": -80.70468042801906,
        "Mean Anomaly(deg)": -142.88488157510298,
        "RAAN(deg)": 174.9963686094577,
        "Satellite Name": "Starlink Shell 1 783",
        "Satellite Number": 783,
        "Semi-Major Axis(m)": 6931778.249405717,
        "Time(s)": 70
    },
    {
        "Altitude(m)": 562291.5300134685,
        "Argument of Periapsis(deg)": 0.002788627836089895,
        "Eccentricity": 0.0,
        "Inclination(deg)": 53.0,
        "Latitude(deg)": -29.469675894874197,
        "Longitude(deg)": -80.25296249578851,
        "Mean Anomaly(deg)": -142.25805037154623,
        "RAAN(deg)": 174.9958498393802,
        "Satellite Name": "Starlink Shell 1 783",
        "Satellite Number": 783,
        "Semi-Major Axis(m)": 6931778.249405717,
        "Time(s)": 80
    },
    {
        "Altitude(m)": 562466.5320174427,
        "Argument of Periapsis(deg)": 0.0031372063156011316,
        "Eccentricity": 0.0,
        "Inclination(deg)": 53.0,
        "Latitude(deg)": -29.92335252390818,
        "Longitude(deg)": -79.79684535274404,
        "Mean Anomaly(deg)": -141.63121916798954,
        "RAAN(deg)": 174.99533106930275,
        "Satellite Name": "Starlink Shell 1 783",
        "Satellite Number": 783,
        "Semi-Major Axis(m)": 6931778.249405717,
        "Time(s)": 90
    },
    {
        "Altitude(m)": 562641.7080530538,
        "Argument of Periapsis(deg)": 0.0034857847951123688,
        "Eccentricity": 0.0,
        "Inclination(deg)": 53.0,
        "Latitude(deg)": -30.375091481612895,
        "Longitude(deg)": -79.33622522483142,
        "Mean Anomaly(deg)": -141.00438796443285,
        "RAAN(deg)": 174.9948122992253,
        "Satellite Name": "Starlink Shell 1 783",
        "Satellite Number": 783,
        "Semi-Major Axis(m)": 6931778.249405717,
        "Time(s)": 100
    },
    {
        "Altitude(m)": 562816.9924666802,
        "Argument of Periapsis(deg)": 0.003834363274623606,
        "Eccentricity": 0.0,
        "Inclination(deg)": 53.0,
        "Latitude(deg)": -30.82484086709326,
        "Longitude(deg)": -78.87099756922865,
        "Mean Anomaly(deg)": -140.37755676087613,
        "RAAN(deg)": 174.9942935291478,
        "Satellite Name": "Starlink Shell 1 783",
        "Satellite Number": 783,
        "Semi-Major Axis(m)": 6931778.249405717,
        "Time(s)": 110
    },
    {
        "Altitude(m)": 562992.3194097342,
        "Argument of Periapsis(deg)": 0.004182941754134842,
        "Eccentricity": 0.0,
        "Inclination(deg)": 53.0,
        "Latitude(deg)": -31.27254760389466,
        "Longitude(deg)": -78.40105658609471,
        "Mean Anomaly(deg)": -139.75072555731944,
        "RAAN(deg)": 174.99377475907033,
        "Satellite Name": "Starlink Shell 1 783",
        "Satellite Number": 783,
        "Semi-Major Axis(m)": 6931778.249405717,
        "Time(s)": 120
    },
    {
        "Altitude(m)": 563167.6228681876,
        "Argument of Periapsis(deg)": 0.004531520233646079,
        "Eccentricity": 0.0,
        "Inclination(deg)": 53.0,
        "Latitude(deg)": -31.718157408333656,
        "Longitude(deg)": -77.92629473462495,
        "Mean Anomaly(deg)": -139.12389435376267,
        "RAAN(deg)": 174.99325598899287,
        "Satellite Name": "Starlink Shell 1 783",
        "Satellite Number": 783,
        "Semi-Major Axis(m)": 6931778.249405717,
        "Time(s)": 130
    },
    {
        "Altitude(m)": 563342.8366921548,
        "Argument of Periapsis(deg)": 0.0048800987131573164,
        "Eccentricity": 0.0,
        "Inclination(deg)": 53.0,
        "Latitude(deg)": -32.161614757566696,
        "Longitude(deg)": -77.44660376662137,
        "Mean Anomaly(deg)": -138.497063150206,
        "RAAN(deg)": 174.99273721891538,
        "Satellite Name": "Starlink Shell 1 783",
        "Satellite Number": 783,
        "Semi-Major Axis(m)": 6931778.249405717,
        "Time(s)": 140
    },
    {
        "Altitude(m)": 563517.8946255178,
        "Argument of Periapsis(deg)": 0.005228677192668553,
        "Eccentricity": 0.0,
        "Inclination(deg)": 53.0,
        "Latitude(deg)": -32.60286285744486,
        "Longitude(deg)": -76.96187425218275,
        "Mean Anomaly(deg)": -137.87023194664926,
        "RAAN(deg)": 174.99221844883792,
        "Satellite Name": "Starlink Shell 1 783",
        "Satellite Number": 783,
        "Semi-Major Axis(m)": 6931778.249405717,
        "Time(s)": 150
    },
    {
        "Altitude(m)": 563692.7303355993,
        "Argument of Periapsis(deg)": 0.00557725567217979,
        "Eccentricity": 0.0,
        "Inclination(deg)": 53.0,
        "Latitude(deg)": -33.04184361020945,
        "Longitude(deg)": -76.47199511076344,
        "Mean Anomaly(deg)": -137.24340074309256,
        "RAAN(deg)": 174.99169967876045,
        "Satellite Name": "Starlink Shell 1 783",
        "Satellite Number": 783,
        "Semi-Major Axis(m)": 6931778.249405717,
        "Time(s)": 160
    },
    {
        "Altitude(m)": 563867.2774428735,
        "Argument of Periapsis(deg)": 0.0059258341516910265,
        "Eccentricity": 0.0,
        "Inclination(deg)": 53.0,
        "Latitude(deg)": -33.47849758209151,
        "Longitude(deg)": -75.97685466086617,
        "Mean Anomaly(deg)": -136.61656953953582,
        "RAAN(deg)": 174.99118090868296,
        "Satellite Name": "Starlink Shell 1 783",
        "Satellite Number": 783,
        "Semi-Major Axis(m)": 6931778.249405717,
        "Time(s)": 170
    },
    {
        "Altitude(m)": 564041.4695506461,
        "Argument of Periapsis(deg)": 0.006274412631202263,
        "Eccentricity": 0.0,
        "Inclination(deg)": 53.0,
        "Latitude(deg)": -33.912763970881315,
        "Longitude(deg)": -75.47634016303356,
        "Mean Anomaly(deg)": -135.98973833597913,
        "RAAN(deg)": 174.9906621386055,
        "Satellite Name": "Starlink Shell 1 783",
        "Satellite Number": 783,
        "Semi-Major Axis(m)": 6931778.249405717,
        "Time(s)": 180
    }
]